ONEWEB-0298             
1 49087U 21075N   24007.54999692  .00000074  00000+0  15759-3 0  9999
2 49087  87.9205 183.1684 0001383  83.3224 276.8065 13.17647807116207
ONEWEB-0299             
1 49088U 21075P   24007.55156252  .00000098  00000+0  21986-3 0  9993
2 49088  87.9201 183.1451 0001359  79.9507 280.1778 13.17650316116189
ONEWEB-0300             
1 49089U 21075Q   24007.43406497  .00000538  00000+0  14609-2 0  9992
2 49089  87.9005 168.0725 0001245 100.4773 259.6495 13.12443192118239
ONEWEB-0301             
1 49090U 21075R   24007.49442006  .00000326  00000+0  87219-3 0  9999
2 49090  87.9007 168.0628 0001515 110.5544 249.5747 13.12444482117604
ONEWEB-0302             
1 49091U 21075S   24007.48170864 -.00000181  00000+0 -53874-3 0  9990
2 49091  87.9008 168.0618 0001589  86.4790 273.6521 13.12446635117587
ONEWEB-0304             
1 49092U 21075T   24007.52625000  .00000053  00000+0  10446-3 0  9997
2 49092  87.9203 183.1590 0001615  79.8146 280.3167 13.17646902116150
ONEWEB-0305             
1 49093U 21075U   24007.51834577  .00000017  00000+0  11047-4 0  9997
2 49093  87.9202 183.1524 0001335  72.6746 287.4531 13.17648190116180
ONEWEB-0308             
1 49094U 21075V   24007.47535673 -.00000299  00000+0 -86509-3 0  9996
2 49094  87.9007 168.0644 0001489  99.0242 261.1055 13.12443211117591
